start=new Date('2022-08-02T00:00:00.000Z').valueOf();
sats=[{"TLE_LINE1":"1 46034U 20055H   22213.68272657  .00001293  00000-0  10570-3 0  9993","FILE":"3527139","RCS_SIZE":"LARGE","BSTAR":"0.00010570000000","APOAPSIS":"548.143","SEMIMAJOR_AXIS":"6925.367","GP_ID":"209386449","SITE":"AFETR","OBJECT_NAME":"STARLINK-1557","EPOCH":"2022-08-01T16:23:07.575648","ELEMENT_SET_NO":"999","MEAN_MOTION_DDOT":"0.0000000000000","REV_AT_EPOCH":"11051","NORAD_CAT_ID":"46034","ECCENTRICITY":"0.00013150","PERIAPSIS":"546.321","TLE_LINE2":"2 46034  53.0533 274.4041 0001315  79.5628 280.5510 15.06394032110519","ARG_OF_PERICENTER":"79.5628","INCLINATION":"53.0533","MEAN_MOTION_DOT":"0.00001293","OBJECT_ID":"2020-055H","MEAN_ELEMENT_THEORY":"SGP4","CENTER_NAME":"EARTH","RA_OF_ASC_NODE":"274.4041","OBJECT_TYPE":"PAYLOAD","TIME_SYSTEM":"UTC","PERIOD":"95.593","EPHEMERIS_TYPE":"0","MEAN_ANOMALY":"280.5510","COUNTRY_CODE":"US","CLASSIFICATION_TYPE":"U","LAUNCH_DATE":"2020-08-07","REF_FRAME":"TEME","MEAN_MOTION":"15.06394032","DECAY_DATE":null},{"ARG_OF_PERICENTER":"72.6451","TLE_LINE2":"2 46035  53.0544 273.4649 0001301  72.6451 287.4680 15.06402995110576","OBJECT_ID":"2020-055J","MEAN_ELEMENT_THEORY":"SGP4","CENTER_NAME":"EARTH","MEAN_MOTION_DOT":"0.00001512","INCLINATION":"53.0544","EPHEMERIS_TYPE":"0","PERIOD":"95.592","TIME_SYSTEM":"UTC","OBJECT_TYPE":"PAYLOAD","RA_OF_ASC_NODE":"273.4649","REF_FRAME":"TEME","LAUNCH_DATE":"2020-08-07","DECAY_DATE":null,"MEAN_MOTION":"15.06402995","CLASSIFICATION_TYPE":"U","MEAN_ANOMALY":"287.4680","COUNTRY_CODE":"US","RCS_SIZE":"LARGE","BSTAR":"0.00012037000000","TLE_LINE1":"1 46035U 20055J   22213.88911661  .00001512  00000-0  12037-3 0  9995","FILE":"3527139","APOAPSIS":"548.105","SEMIMAJOR_AXIS":"6925.339","ELEMENT_SET_NO":"999","MEAN_MOTION_DDOT":"0.0000000000000","EPOCH":"2022-08-01T21:20:19.675104","OBJECT_NAME":"STARLINK-1558","SITE":"AFETR","GP_ID":"209387698","PERIAPSIS":"546.303","NORAD_CAT_ID":"46035","ECCENTRICITY":"0.00013010","REV_AT_EPOCH":"11057"},{"REV_AT_EPOCH":"11057","NORAD_CAT_ID":"46036","ECCENTRICITY":"0.00015680","PERIAPSIS":"546.154","GP_ID":"209387441","SITE":"AFETR","OBJECT_NAME":"STARLINK-1560","EPOCH":"2022-08-01T20:59:07.317600","MEAN_MOTION_DDOT":"0.0000000000000","ELEMENT_SET_NO":"999","APOAPSIS":"548.326","SEMIMAJOR_AXIS":"6925.375","TLE_LINE1":"1 46036U 20055K   22213.87439025  .00001324  00000-0  10780-3 0  9998","FILE":"3527139","RCS_SIZE":"LARGE","BSTAR":"0.00010780000000","MEAN_ANOMALY":"298.5838","COUNTRY_CODE":"US","CLASSIFICATION_TYPE":"U","LAUNCH_DATE":"2020-08-07","REF_FRAME":"TEME","DECAY_DATE":null,"MEAN_MOTION":"15.06391502","RA_OF_ASC_NODE":"273.5535","OBJECT_TYPE":"PAYLOAD","PERIOD":"95.593","TIME_SYSTEM":"UTC","EPHEMERIS_TYPE":"0","INCLINATION":"53.0547","MEAN_MOTION_DOT":"0.00001324","OBJECT_ID":"2020-055K","CENTER_NAME":"EARTH","MEAN_ELEMENT_THEORY":"SGP4","TLE_LINE2":"2 46036  53.0547 273.5535 0001568  61.5308 298.5838 15.06391502110577","ARG_OF_PERICENTER":"61.5308"},{"EPOCH":"2022-08-01T20:53:48.129216","OBJECT_NAME":"STARLINK-1565","GP_ID":"209386698","SITE":"AFETR","MEAN_MOTION_DDOT":"0.0000000000000","ELEMENT_SET_NO":"999","REV_AT_EPOCH":"11056","PERIAPSIS":"546.285","NORAD_CAT_ID":"46037","ECCENTRICITY":"0.00013580","RCS_SIZE":"LARGE","BSTAR":"-0.00001613600000","TLE_LINE1":"1 46037U 20055L   22213.87069594 -.00000522  00000-0 -16136-4 0  9992","FILE":"3527139","APOAPSIS":"548.166","SEMIMAJOR_AXIS":"6925.361","TIME_SYSTEM":"UTC","PERIOD":"95.592","OBJECT_TYPE":"PAYLOAD","RA_OF_ASC_NODE":"273.5742","EPHEMERIS_TYPE":"0","CLASSIFICATION_TYPE":"U","MEAN_ANOMALY":"282.4318","COUNTRY_CODE":"US","LAUNCH_DATE":"2020-08-07","REF_FRAME":"TEME","DECAY_DATE":null,"MEAN_MOTION":"15.06396041","ARG_OF_PERICENTER":"77.6823","TLE_LINE2":"2 46037  53.0529 273.5742 0001358  77.6823 282.4318 15.06396041110562","MEAN_MOTION_DOT":"-0.00000522","INCLINATION":"53.0529","OBJECT_ID":"2020-055L","MEAN_ELEMENT_THEORY":"SGP4","CENTER_NAME":"EARTH"},{"SEMIMAJOR_AXIS":"6925.352","APOAPSIS":"548.060","TLE_LINE1":"1 46038U 20055M   22213.88543191  .00001350  00000-0  10951-3 0  9990","FILE":"3527139","BSTAR":"0.00010951000000","RCS_SIZE":"LARGE","ECCENTRICITY":"0.00012170","NORAD_CAT_ID":"46038","PERIAPSIS":"546.374","REV_AT_EPOCH":"11056","ELEMENT_SET_NO":"999","MEAN_MOTION_DDOT":"0.0000000000000","GP_ID":"209386949","SITE":"AFETR","OBJECT_NAME":"STARLINK-1567","EPOCH":"2022-08-01T21:15:01.317024","MEAN_ELEMENT_THEORY":"SGP4","CENTER_NAME":"EARTH","OBJECT_ID":"2020-055M","INCLINATION":"53.0532","MEAN_MOTION_DOT":"0.00001350","TLE_LINE2":"2 46038  53.0532 273.4921 0001217  74.3489 285.7634 15.06398842110569","ARG_OF_PERICENTER":"74.3489","DECAY_DATE":null,"MEAN_MOTION":"15.06398842","LAUNCH_DATE":"2020-08-07","REF_FRAME":"TEME","MEAN_ANOMALY":"285.7634","COUNTRY_CODE":"US","CLASSIFICATION_TYPE":"U","EPHEMERIS_TYPE":"0","OBJECT_TYPE":"PAYLOAD","RA_OF_ASC_NODE":"273.4921","PERIOD":"95.592","TIME_SYSTEM":"UTC"},{"EPHEMERIS_TYPE":"0","TIME_SYSTEM":"UTC","PERIOD":"95.593","OBJECT_TYPE":"PAYLOAD","RA_OF_ASC_NODE":"273.4580","MEAN_MOTION":"15.06392764","DECAY_DATE":null,"LAUNCH_DATE":"2020-08-07","REF_FRAME":"TEME","CLASSIFICATION_TYPE":"U","MEAN_ANOMALY":"284.6952","COUNTRY_CODE":"US","ARG_OF_PERICENTER":"75.4185","TLE_LINE2":"2 46039  53.0531 273.4580 0001334  75.4185 284.6952 15.06392764110563","CENTER_NAME":"EARTH","MEAN_ELEMENT_THEORY":"SGP4","OBJECT_ID":"2020-055N","MEAN_MOTION_DOT":"0.00001218","INCLINATION":"53.0531","ELEMENT_SET_NO":"999","MEAN_MOTION_DDOT":"0.0000000000000","OBJECT_NAME":"STARLINK-1569","EPOCH":"2022-08-01T21:25:39.768960","SITE":"AFETR","GP_ID":"209387200","PERIAPSIS":"546.312","ECCENTRICITY":"0.00013340","NORAD_CAT_ID":"46039","REV_AT_EPOCH":"11056","BSTAR":"0.00010064000000","RCS_SIZE":"LARGE","FILE":"3527139","TLE_LINE1":"1 46039U 20055N   22213.89282140  .00001218  00000-0  10064-3 0  9994","SEMIMAJOR_AXIS":"6925.371","APOAPSIS":"548.160"},{"SEMIMAJOR_AXIS":"6925.356","APOAPSIS":"548.202","TLE_LINE1":"1 46040U 20055P   22213.85594988 -.00000259  00000-0  15129-5 0  9992","FILE":"3527139","BSTAR":"0.00000151290000","RCS_SIZE":"LARGE","ECCENTRICITY":"0.00014160","NORAD_CAT_ID":"46040","PERIAPSIS":"546.240","REV_AT_EPOCH":"11052","MEAN_MOTION_DDOT":"0.0000000000000","ELEMENT_SET_NO":"999","GP_ID":"209387939","SITE":"AFETR","OBJECT_NAME":"STARLINK-1576","EPOCH":"2022-08-01T20:32:34.069632","MEAN_ELEMENT_THEORY":"SGP4","CENTER_NAME":"EARTH","OBJECT_ID":"2020-055P","INCLINATION":"53.0539","MEAN_MOTION_DOT":"-0.00000259","TLE_LINE2":"2 46040  53.0539 273.6210 0001416  76.5230 283.5916 15.06397602110529","ARG_OF_PERICENTER":"76.5230","DECAY_DATE":null,"MEAN_MOTION":"15.06397602","REF_FRAME":"TEME","LAUNCH_DATE":"2020-08-07","COUNTRY_CODE":"US","MEAN_ANOMALY":"283.5916","CLASSIFICATION_TYPE":"U","EPHEMERIS_TYPE":"0","OBJECT_TYPE":"PAYLOAD","RA_OF_ASC_NODE":"273.6210","PERIOD":"95.592","TIME_SYSTEM":"UTC"},{"OBJECT_NAME":"STARLINK-1580","EPOCH":"2022-08-01T20:48:30.680928","GP_ID":"209386199","SITE":"AFETR","MEAN_MOTION_DDOT":"0.0000000000000","ELEMENT_SET_NO":"999","REV_AT_EPOCH":"11053","PERIAPSIS":"546.301","ECCENTRICITY":"0.00013470","NORAD_CAT_ID":"46041","BSTAR":"0.00001363700000","RCS_SIZE":"LARGE","FILE":"3527139","TLE_LINE1":"1 46041U 20055Q   22213.86702177 -.00000078  00000-0  13637-4 0  9995","SEMIMAJOR_AXIS":"6925.369","APOAPSIS":"548.167","TIME_SYSTEM":"UTC","PERIOD":"95.593","OBJECT_TYPE":"PAYLOAD","RA_OF_ASC_NODE":"273.6611","EPHEMERIS_TYPE":"0","CLASSIFICATION_TYPE":"U","MEAN_ANOMALY":"293.1166","COUNTRY_CODE":"US","MEAN_MOTION":"15.06393287","DECAY_DATE":null,"REF_FRAME":"TEME","LAUNCH_DATE":"2020-08-07","ARG_OF_PERICENTER":"66.9965","TLE_LINE2":"2 46041  53.0541 273.6611 0001347  66.9965 293.1166 15.06393287110539","MEAN_MOTION_DOT":"-0.00000078","INCLINATION":"53.0541","MEAN_ELEMENT_THEORY":"SGP4","CENTER_NAME":"EARTH","OBJECT_ID":"2020-055Q"},{"PERIAPSIS":"546.298","ECCENTRICITY":"0.00013240","NORAD_CAT_ID":"46042","REV_AT_EPOCH":"11053","MEAN_MOTION_DDOT":"0.0000000000000","ELEMENT_SET_NO":"999","OBJECT_NAME":"STARLINK-1581","EPOCH":"2022-08-01T21:46:52.495392","GP_ID":"209386450","SITE":"AFETR","SEMIMAJOR_AXIS":"6925.350","APOAPSIS":"548.132","BSTAR":"0.00011071000000","RCS_SIZE":"LARGE","TLE_LINE1":"1 46042U 20055R   22213.90755203  .00001368  00000-0  11071-3 0  9990","FILE":"3527139","MEAN_MOTION":"15.06399507","DECAY_DATE":null,"REF_FRAME":"TEME","LAUNCH_DATE":"2020-08-07","CLASSIFICATION_TYPE":"U","MEAN_ANOMALY":"283.9680","COUNTRY_CODE":"US","EPHEMERIS_TYPE":"0","TIME_SYSTEM":"UTC","PERIOD":"95.592","OBJECT_TYPE":"PAYLOAD","RA_OF_ASC_NODE":"273.3869","MEAN_ELEMENT_THEORY":"SGP4","CENTER_NAME":"EARTH","OBJECT_ID":"2020-055R","MEAN_MOTION_DOT":"0.00001368","INCLINATION":"53.0537","ARG_OF_PERICENTER":"76.1457","TLE_LINE2":"2 46042  53.0537 273.3869 0001324  76.1457 283.9680 15.06399507110530"},{"FILE":"3527139","TLE_LINE1":"1 46043U 20055S   22213.90018444 -.00000198  00000-0  55858-5 0  9994","BSTAR":"0.00000558580000","RCS_SIZE":"LARGE","SEMIMAJOR_AXIS":"6925.358","APOAPSIS":"548.095","MEAN_MOTION_DDOT":"0.0000000000000","ELEMENT_SET_NO":"999","GP_ID":"209387699","SITE":"AFETR","OBJECT_NAME":"STARLINK-1582","EPOCH":"2022-08-01T21:36:15.935616","ECCENTRICITY":"0.00012600","NORAD_CAT_ID":"46043","PERIAPSIS":"546.350","REV_AT_EPOCH":"11056","TLE_LINE2":"2 46043  53.0538 273.4336 0001260  76.5590 283.5539 15.06396973110569","ARG_OF_PERICENTER":"76.5590","CENTER_NAME":"EARTH","MEAN_ELEMENT_THEORY":"SGP4","OBJECT_ID":"2020-055S","INCLINATION":"53.0538","MEAN_MOTION_DOT":"-0.00000198","EPHEMERIS_TYPE":"0","OBJECT_TYPE":"PAYLOAD","RA_OF_ASC_NODE":"273.4336","PERIOD":"95.592","TIME_SYSTEM":"UTC","DECAY_DATE":null,"MEAN_MOTION":"15.06396973","REF_FRAME":"TEME","LAUNCH_DATE":"2020-08-07","COUNTRY_CODE":"US","MEAN_ANOMALY":"283.5539","CLASSIFICATION_TYPE":"U"}];
